start=new Date('2023-03-10T00:00:00.000Z').valueOf();
sats=[{"RCS_SIZE":"LARGE","RA_OF_ASC_NODE":"4.4103","MEAN_MOTION_DOT":"0.00013422","REV_AT_EPOCH":"9842","LAUNCH_DATE":"2021-05-26","COUNTRY_CODE":"US","PERIOD":"95.591","MEAN_ELEMENT_THEORY":"SGP4","OBJECT_ID":"2021-044R","MEAN_ANOMALY":"281.6957","CENTER_NAME":"EARTH","ARG_OF_PERICENTER":"78.4172","DECAY_DATE":null,"ELEMENT_SET_NO":"999","NORAD_CAT_ID":"48653","MEAN_MOTION_DDOT":"0.0000000000000","OBJECT_TYPE":"PAYLOAD","REF_FRAME":"TEME","GP_ID":"227767238","TLE_LINE2":"2 48653  53.0546   4.4103 0001248  78.4172 281.6957 15.06419145 98424","SITE":"AFETR","ECCENTRICITY":"0.00012480","SEMIMAJOR_AXIS":"6925.290","TLE_LINE1":"1 48653U 21044R   23068.09793591  .00013422  00000-0  91780-3 0  9999","INCLINATION":"53.0546","CLASSIFICATION_TYPE":"U","TIME_SYSTEM":"UTC","PERIAPSIS":"546.291","EPOCH":"2023-03-09T02:21:01.662624","BSTAR":"0.00091780000000","EPHEMERIS_TYPE":"0","FILE":"3855951","MEAN_MOTION":"15.06419145","OBJECT_NAME":"STARLINK-2720","APOAPSIS":"548.019"},{"INCLINATION":"53.0548","CLASSIFICATION_TYPE":"U","TIME_SYSTEM":"UTC","EPOCH":"2023-03-09T02:15:42.769728","PERIAPSIS":"546.174","BSTAR":"0.00188440000000","EPHEMERIS_TYPE":"0","FILE":"3855951","MEAN_MOTION":"15.06424753","OBJECT_NAME":"STARLINK-2651","APOAPSIS":"548.101","OBJECT_TYPE":"PAYLOAD","REF_FRAME":"TEME","TLE_LINE2":"2 48654  53.0548   4.4299 0001391  98.6762 261.4385 15.06424753 98423","GP_ID":"227767993","SITE":"AFETR","ECCENTRICITY":"0.00013910","TLE_LINE1":"1 48654U 21044S   23068.09424502  .00027917  00000-0  18844-2 0  9996","SEMIMAJOR_AXIS":"6925.273","OBJECT_ID":"2021-044S","MEAN_ANOMALY":"261.4385","CENTER_NAME":"EARTH","ARG_OF_PERICENTER":"98.6762","DECAY_DATE":null,"ELEMENT_SET_NO":"999","NORAD_CAT_ID":"48654","MEAN_MOTION_DDOT":"0.0000000000000","RCS_SIZE":"LARGE","RA_OF_ASC_NODE":"4.4299","MEAN_MOTION_DOT":"0.00027917","LAUNCH_DATE":"2021-05-26","REV_AT_EPOCH":"9842","COUNTRY_CODE":"US","PERIOD":"95.591","MEAN_ELEMENT_THEORY":"SGP4"},{"ELEMENT_SET_NO":"999","MEAN_MOTION_DDOT":"0.0000000000000","NORAD_CAT_ID":"48655","DECAY_DATE":null,"OBJECT_ID":"2021-044T","CENTER_NAME":"EARTH","ARG_OF_PERICENTER":"95.3606","MEAN_ANOMALY":"264.7571","COUNTRY_CODE":"US","REV_AT_EPOCH":"9842","LAUNCH_DATE":"2021-05-26","PERIOD":"95.590","MEAN_ELEMENT_THEORY":"SGP4","MEAN_MOTION_DOT":"0.00040191","RA_OF_ASC_NODE":"4.4399","RCS_SIZE":"LARGE","EPHEMERIS_TYPE":"0","MEAN_MOTION":"15.06426662","FILE":"3855951","APOAPSIS":"548.270","OBJECT_NAME":"STARLINK-2657","TIME_SYSTEM":"UTC","CLASSIFICATION_TYPE":"U","INCLINATION":"53.0539","BSTAR":"0.00269980000000","EPOCH":"2023-03-09T02:10:24.746016","PERIAPSIS":"545.994","TLE_LINE1":"1 48655U 21044T   23068.09056419  .00040191  00000-0  26998-2 0  9993","SEMIMAJOR_AXIS":"6925.267","ECCENTRICITY":"0.00016430","SITE":"AFETR","OBJECT_TYPE":"PAYLOAD","TLE_LINE2":"2 48655  53.0539   4.4399 0001643  95.3606 264.7571 15.06426662 98420","GP_ID":"227766743","REF_FRAME":"TEME"},{"RA_OF_ASC_NODE":"4.4580","MEAN_MOTION_DOT":"0.00040737","RCS_SIZE":"LARGE","MEAN_ELEMENT_THEORY":"SGP4","PERIOD":"95.591","COUNTRY_CODE":"US","LAUNCH_DATE":"2021-05-26","REV_AT_EPOCH":"9842","CENTER_NAME":"EARTH","ARG_OF_PERICENTER":"107.2241","MEAN_ANOMALY":"252.8885","OBJECT_ID":"2021-044U","NORAD_CAT_ID":"48656","MEAN_MOTION_DDOT":"0.0000000000000","ELEMENT_SET_NO":"999","DECAY_DATE":null,"TLE_LINE2":"2 48656  53.0542   4.4580 0001251 107.2241 252.8885 15.06423059 98423","GP_ID":"227766992","REF_FRAME":"TEME","OBJECT_TYPE":"PAYLOAD","TLE_LINE1":"1 48656U 21044U   23068.08687454  .00040737  00000-0  27363-2 0  9995","SEMIMAJOR_AXIS":"6925.278","SITE":"AFETR","ECCENTRICITY":"0.00012510","BSTAR":"0.00273630000000","PERIAPSIS":"546.277","EPOCH":"2023-03-09T02:05:05.960256","TIME_SYSTEM":"UTC","CLASSIFICATION_TYPE":"U","INCLINATION":"53.0542","APOAPSIS":"548.009","OBJECT_NAME":"STARLINK-2701","FILE":"3855951","MEAN_MOTION":"15.06423059","EPHEMERIS_TYPE":"0"},{"MEAN_MOTION_DOT":"0.00019153","RA_OF_ASC_NODE":"4.4760","RCS_SIZE":"LARGE","COUNTRY_CODE":"US","REV_AT_EPOCH":"9842","LAUNCH_DATE":"2021-05-26","MEAN_ELEMENT_THEORY":"SGP4","PERIOD":"95.591","OBJECT_ID":"2021-044V","ARG_OF_PERICENTER":"73.8840","CENTER_NAME":"EARTH","MEAN_ANOMALY":"286.2236","NORAD_CAT_ID":"48657","MEAN_MOTION_DDOT":"0.0000000000000","ELEMENT_SET_NO":"999","DECAY_DATE":null,"OBJECT_TYPE":"PAYLOAD","GP_ID":"227767739","TLE_LINE2":"2 48657  53.0555   4.4760 0000785  73.8840 286.2236 15.06420199 98425","REF_FRAME":"TEME","TLE_LINE1":"1 48657U 21044V   23068.08318434  .00019153  00000-0  13005-2 0  9991","SEMIMAJOR_AXIS":"6925.287","SITE":"AFETR","ECCENTRICITY":"0.00007850","CLASSIFICATION_TYPE":"U","TIME_SYSTEM":"UTC","INCLINATION":"53.0555","BSTAR":"0.00130050000000","EPOCH":"2023-03-09T01:59:47.126976","PERIAPSIS":"546.608","MEAN_MOTION":"15.06420199","FILE":"3855951","EPHEMERIS_TYPE":"0","APOAPSIS":"547.695","OBJECT_NAME":"STARLINK-2734"},{"DECAY_DATE":null,"MEAN_MOTION_DDOT":"0.0000000000000","NORAD_CAT_ID":"48658","ELEMENT_SET_NO":"999","OBJECT_ID":"2021-044W","MEAN_ANOMALY":"287.7555","ARG_OF_PERICENTER":"72.3519","CENTER_NAME":"EARTH","REV_AT_EPOCH":"9842","LAUNCH_DATE":"2021-05-26","COUNTRY_CODE":"US","MEAN_ELEMENT_THEORY":"SGP4","PERIOD":"95.591","RCS_SIZE":"LARGE","MEAN_MOTION_DOT":"0.00042579","RA_OF_ASC_NODE":"4.4909","MEAN_MOTION":"15.06420576","FILE":"3855951","EPHEMERIS_TYPE":"0","OBJECT_NAME":"STARLINK-2647","APOAPSIS":"547.689","INCLINATION":"53.0551","TIME_SYSTEM":"UTC","CLASSIFICATION_TYPE":"U","PERIAPSIS":"546.612","EPOCH":"2023-03-09T01:54:29.572416","BSTAR":"0.00285860000000","SITE":"AFETR","ECCENTRICITY":"0.00007770","SEMIMAJOR_AXIS":"6925.285","TLE_LINE1":"1 48658U 21044W   23068.07950894  .00042579  00000-0  28586-2 0  9991","OBJECT_TYPE":"PAYLOAD","REF_FRAME":"TEME","GP_ID":"227767493","TLE_LINE2":"2 48658  53.0551   4.4909 0000777  72.3519 287.7555 15.06420576 98424"},{"REF_FRAME":"TEME","GP_ID":"227766243","TLE_LINE2":"2 48659  53.0553   4.2099 0000788  99.9361 260.1717 15.06421402 98432","OBJECT_TYPE":"PAYLOAD","ECCENTRICITY":"0.00007880","SITE":"AFETR","SEMIMAJOR_AXIS":"6925.283","TLE_LINE1":"1 48659U 21044X   23068.14216357  .00017873  00000-0  12150-2 0  9998","EPOCH":"2023-03-09T03:24:42.932448","PERIAPSIS":"546.602","BSTAR":"0.00121500000000","INCLINATION":"53.0553","TIME_SYSTEM":"UTC","CLASSIFICATION_TYPE":"U","OBJECT_NAME":"STARLINK-2717","APOAPSIS":"547.694","EPHEMERIS_TYPE":"0","FILE":"3855951","MEAN_MOTION":"15.06421402","RCS_SIZE":"LARGE","RA_OF_ASC_NODE":"4.2099","MEAN_MOTION_DOT":"0.00017873","PERIOD":"95.591","MEAN_ELEMENT_THEORY":"SGP4","REV_AT_EPOCH":"9843","LAUNCH_DATE":"2021-05-26","COUNTRY_CODE":"US","MEAN_ANOMALY":"260.1717","CENTER_NAME":"EARTH","ARG_OF_PERICENTER":"99.9361","OBJECT_ID":"2021-044X","DECAY_DATE":null,"ELEMENT_SET_NO":"999","MEAN_MOTION_DDOT":"0.0000000000000","NORAD_CAT_ID":"48659"},{"RCS_SIZE":"LARGE","RA_OF_ASC_NODE":"4.2260","MEAN_MOTION_DOT":"0.00033296","LAUNCH_DATE":"2021-05-26","REV_AT_EPOCH":"9843","COUNTRY_CODE":"US","PERIOD":"95.590","MEAN_ELEMENT_THEORY":"SGP4","OBJECT_ID":"2021-044Y","MEAN_ANOMALY":"266.4981","ARG_OF_PERICENTER":"93.6127","CENTER_NAME":"EARTH","DECAY_DATE":null,"ELEMENT_SET_NO":"999","MEAN_MOTION_DDOT":"0.0000000000000","NORAD_CAT_ID":"48660","OBJECT_TYPE":"PAYLOAD","REF_FRAME":"TEME","GP_ID":"227766492","TLE_LINE2":"2 48660  53.0557   4.2260 0001034  93.6127 266.4981 15.06427635 98430","SITE":"AFETR","ECCENTRICITY":"0.00010340","SEMIMAJOR_AXIS":"6925.264","TLE_LINE1":"1 48660U 21044Y   23068.13847759  .00033296  00000-0  22420-2 0  9993","INCLINATION":"53.0557","CLASSIFICATION_TYPE":"U","TIME_SYSTEM":"UTC","PERIAPSIS":"546.413","EPOCH":"2023-03-09T03:19:24.463776","BSTAR":"0.00224200000000","EPHEMERIS_TYPE":"0","FILE":"3855951","MEAN_MOTION":"15.06427635","OBJECT_NAME":"STARLINK-2688","APOAPSIS":"547.845"},{"FILE":"3855951","MEAN_MOTION":"15.06430151","EPHEMERIS_TYPE":"0","APOAPSIS":"547.392","OBJECT_NAME":"STARLINK-2708","CLASSIFICATION_TYPE":"U","TIME_SYSTEM":"UTC","INCLINATION":"53.0546","BSTAR":"0.00169680000000","EPOCH":"2023-03-09T22:27:11.954592","PERIAPSIS":"546.850","TLE_LINE1":"1 48661U 21044Z   23068.93555503  .00025103  00000-0  16968-2 0  9993","SEMIMAJOR_AXIS":"6925.256","SITE":"AFETR","ECCENTRICITY":"0.00003910","OBJECT_TYPE":"PAYLOAD","TLE_LINE2":"2 48661  53.0546 350.6519 0000391 103.5504 256.5528 15.06430151 98691","GP_ID":"227767239","REF_FRAME":"TEME","NORAD_CAT_ID":"48661","MEAN_MOTION_DDOT":"0.0000000000000","ELEMENT_SET_NO":"999","DECAY_DATE":null,"OBJECT_ID":"2021-044Z","CENTER_NAME":"EARTH","ARG_OF_PERICENTER":"103.5504","MEAN_ANOMALY":"256.5528","COUNTRY_CODE":"US","LAUNCH_DATE":"2021-05-26","REV_AT_EPOCH":"9869","MEAN_ELEMENT_THEORY":"SGP4","PERIOD":"95.590","RA_OF_ASC_NODE":"350.6519","MEAN_MOTION_DOT":"0.00025103","RCS_SIZE":"LARGE"},{"OBJECT_TYPE":"PAYLOAD","TLE_LINE2":"2 48662  53.0542 350.6722 0001271  77.6773 282.4358 15.06409953 98696","GP_ID":"227767994","REF_FRAME":"TEME","SEMIMAJOR_AXIS":"6925.318","TLE_LINE1":"1 48662U 21044AA  23068.93187565  .00007660  00000-0  53243-3 0  9999","ECCENTRICITY":"0.00012710","SITE":"AFETR","CLASSIFICATION_TYPE":"U","TIME_SYSTEM":"UTC","INCLINATION":"53.0542","BSTAR":"0.00053243000000","EPOCH":"2023-03-09T22:21:54.056160","PERIAPSIS":"546.303","MEAN_MOTION":"15.06409953","FILE":"3855951","EPHEMERIS_TYPE":"0","APOAPSIS":"548.063","OBJECT_NAME":"STARLINK-2726","RA_OF_ASC_NODE":"350.6722","MEAN_MOTION_DOT":"0.00007660","RCS_SIZE":"LARGE","COUNTRY_CODE":"US","LAUNCH_DATE":"2021-05-26","REV_AT_EPOCH":"9869","MEAN_ELEMENT_THEORY":"SGP4","PERIOD":"95.592","OBJECT_ID":"2021-044AA","CENTER_NAME":"EARTH","ARG_OF_PERICENTER":"77.6773","MEAN_ANOMALY":"282.4358","MEAN_MOTION_DDOT":"0.0000000000000","NORAD_CAT_ID":"48662","ELEMENT_SET_NO":"999","DECAY_DATE":null}];
